STARLINK-31850          
1 59903U 24100U   25229.64210186  .00000923  00000+0  43067-4 0  9998
2 59903  43.0005 197.4638 0001758 276.0741  83.9910 15.27580613 69896
STARLINK-31924          
1 59904U 24100V   25229.19725272  .00000559  00000+0  29855-4 0  9990
2 59904  43.0012 200.1515 0001344 269.9323  90.1375 15.27574265 69878
STARLINK-31898          
1 59905U 24100W   25230.18752692  .00000824  00000+0  39428-4 0  9990
2 59905  43.0007 191.2283 0000275 255.9484 104.1337 15.27592635 70068
STARLINK-31861          
1 59906U 24100X   25229.58282317  .00000697  00000+0  34853-4 0  9990
2 59906  43.0012 190.9358 0000816 269.9761  90.0997 15.27575367 69918
STARLINK-31920          
1 59907U 24100Y   25229.86423411  .00001990  00000+0  81831-4 0  9999
2 59907  43.0026 164.0452 0000913 270.9241  89.1506 15.27578896 70348
EARTHCARE               
1 59908U 24101A   25229.90410262  .00012012  00000+0  16737-3 0  9995
2 59908  97.0197 355.5895 0001241 109.5795 250.5595 15.57068206 69376
TIANQI 25               
1 59909U 24102A   25230.18685855  .00000013  00000+0  96934-4 0  9997
2 59909  44.9762 170.0894 0011959 258.8374 101.1114 13.99017640 62475
TIANQI 26               
1 59910U 24102B   25230.17017114  .00000022  00000+0  10327-3 0  9996
2 59910  44.9726 169.8627 0010925 263.8668  96.0919 13.98988947 62472
TIANQI 27               
1 59911U 24102C   25230.20307199  .00000018  00000+0  10059-3 0  9993
2 59911  44.9772 169.4777 0008191 274.5798  85.4099 13.99013905 62476
TIANQI 28               
1 59912U 24102D   25230.15055190  .00000017  00000+0  10004-3 0  9998
2 59912  44.9779 169.9261 0012664 267.7043  92.2340 13.99008063 62467
PAKSAT-MM1              
1 59915U 24104A   25229.90041140  .00000144  00000+0  00000+0 0  9996
2 59915   0.0194 199.9975 0001466 327.2819 161.5586  1.00273221  4489
2024-105A               
1 59917U 24105A   25230.15428861  .00002430  00000+0  13582-3 0  9990
2 59917  97.5974 240.4602 0013595 188.5965 171.5035 15.14392517 67112
2024-105B               
1 59918U 24105B   25230.15686320  .00002712  00000+0  15136-3 0  9997
2 59918  97.5959 240.4281 0012410 207.9370 152.1196 15.14353452 67129
2024-105C               
1 59919U 24105C   25230.17130532  .00003826  00000+0  19922-3 0  9993
2 59919  97.5940 241.1693 0012984 188.9607 171.1396 15.16557910 67188
2024-105D               
1 59920U 24105D   25230.16485767  .00004452  00000+0  22208-3 0  9994
2 59920  97.5997 241.9964 0012800 186.4636 173.6435 15.17985136 67214
2024-105E               
1 59921U 24105E   25230.14500324  .00003029  00000+0  15935-3 0  9998
2 59921  97.5947 241.0826 0012933 188.5486 171.5528 15.16364976 67178
STARLINK-31872          
1 59922U 24106A   25229.84583675  .00002930  00000+0  11595-3 0  9993
2 59922  43.0008  44.0620 0001261 272.6267  87.4440 15.27586084 69381
STARLINK-31972          
1 59923U 24106B   25229.76246294  .00003335  00000+0  13065-3 0  9992
2 59923  43.0004  44.2923 0001459 272.0856  87.9828 15.27578679 69389
STARLINK-31958          
1 59924U 24106C   25229.83477682  .00001880  00000+0  77832-4 0  9994
2 59924  43.0027  29.2725 0001069 262.6466  97.4264 15.27581115 69511
STARLINK-31959          
1 59925U 24106D   25229.53593953  .00001253  00000+0  55046-4 0  9999
2 59925  43.0037  41.6337 0001189 265.5586  94.5130 15.27573485 69340
STARLINK-31957          
1 59926U 24106E   25230.18419173  .00000241  00000+0  18271-4 0  9999
2 59926  43.0015  41.4400 0001192 269.1936  90.8779 15.27576619 69451
STARLINK-31968          
1 59927U 24106F   25230.19190984  .00000460  00000+0  26237-4 0  9991
2 59927  42.9993  41.4993 0000651  70.2508 289.8414 15.27575386 69464
STARLINK-31970          
1 59928U 24106G   25229.75861350  .00004657  00000+0  17877-3 0  9995
2 59928  43.0010  44.2617 0001588 267.9646  92.1024 15.27559648 69385
STARLINK-31932          
1 59929U 24106H   25230.17450877 -.00061158  00000+0 -22303-2 0  9992
2 59929  43.0003  38.6568 0004160 258.6905 101.3479 15.27585001 69439
STARLINK-31956          
1 59930U 24106J   25229.75219039  .00000481  00000+0  27013-4 0  9994
2 59930  43.0044  44.2156 0001567 270.7993  89.2679 15.27577371 69338
STARLINK-31960          
1 59931U 24106K   25229.86754667  .00001918  00000+0  79220-4 0  9991
2 59931  43.0039  43.3629 0001039 285.0220  75.0517 15.27565565 69352
STARLINK-31432          
1 59932U 24106L   25230.16634511 -.00116509  00000+0 -42950-2 0  9995
2 59932  42.9966  42.1712 0002983 269.7819  90.2691 15.27546107 69388
STARLINK-31853          
1 59933U 24106M   25229.75604660  .00000830  00000+0  39685-4 0  9991
2 59933  43.0018  44.2408 0001266 252.5924 107.4789 15.27572168 69334
STARLINK-31971          
1 59934U 24106N   25230.17837340 -.00000029  00000+0  84851-5 0  9990
2 59934  43.0037  38.6442 0001327 280.5841  79.4861 15.27575936 69276
STARLINK-31962          
1 59936U 24106Q   25229.84327070  .00001158  00000+0  51607-4 0  9993
2 59936  42.9999  44.0380 0001050 284.3828  75.6907 15.27580348 69345
