OBJECT_NAME,OBJECT_ID,EPOCH,MEAN_MOTION,ECCENTRICITY,INCLINATION,RA_OF_ASC_NODE,ARG_OF_PERICENTER,MEAN_ANOMALY,EPHEMERIS_TYPE,CLASSIFICATION_TYPE,NORAD_CAT_ID,ELEMENT_SET_NO,REV_AT_EPOCH,BSTAR,MEAN_MOTION_DOT,MEAN_MOTION_DDOT
STARLINK-31850,2024-100U,2025-08-17T15:24:37.600704,15.27580613,0.0001758,43.0005,197.4638,276.0741,83.991,0,U,59903,999,6989,4.3067e-05,9.23e-06,0.0
STARLINK-31924,2024-100V,2025-08-17T04:44:02.635008,15.27574265,0.0001344,43.0012,200.1515,269.9323,90.1375,0,U,59904,999,6987,2.9855e-05,5.59e-06,0.0
STARLINK-31898,2024-100W,2025-08-18T04:30:02.325888,15.27592635,2.75e-05,43.0007,191.2283,255.9484,104.1337,0,U,59905,999,7006,3.9428e-05,8.24e-06,0.0
STARLINK-31861,2024-100X,2025-08-17T13:59:15.921888,15.27575367,8.16e-05,43.0012,190.9358,269.9761,90.0997,0,U,59906,999,6991,3.4853e-05,6.97e-06,0.0
STARLINK-31920,2024-100Y,2025-08-17T20:44:29.827104,15.27578896,9.13e-05,43.0026,164.0452,270.9241,89.1506,0,U,59907,999,7034,8.1831e-05,1.99e-05,0.0
EARTHCARE,2024-101A,2025-08-17T21:41:54.466368,15.57068206,0.0001241,97.0197,355.5895,109.5795,250.5595,0,U,59908,999,6937,0.00016737,0.00012012,0.0
TIANQI 25,2024-102A,2025-08-18T04:29:04.578720,13.9901764,0.0011959,44.9762,170.0894,258.8374,101.1114,0,U,59909,999,6247,9.6934e-05,1.3e-07,0.0
TIANQI 26,2024-102B,2025-08-18T04:05:02.786496,13.98988947,0.0010925,44.9726,169.8627,263.8668,96.0919,0,U,59910,999,6247,0.00010327,2.2e-07,0.0
TIANQI 27,2024-102C,2025-08-18T04:52:25.419936,13.99013905,0.0008191,44.9772,169.4777,274.5798,85.4099,0,U,59911,999,6247,0.00010059,1.8e-07,0.0
TIANQI 28,2024-102D,2025-08-18T03:36:47.684160,13.99008063,0.0012664,44.9779,169.9261,267.7043,92.234,0,U,59912,999,6246,0.00010004,1.7e-07,0.0
PAKSAT-MM1,2024-104A,2025-08-17T21:36:35.544960,1.00273221,0.0001466,0.0194,199.9975,327.2819,161.5586,0,U,59915,999,448,0.0,1.44e-06,0.0
2024-105A,2024-105A,2025-08-18T03:42:10.535904,15.14392517,0.0013595,97.5974,240.4602,188.5965,171.5035,0,U,59917,999,6711,0.00013582,2.43e-05,0.0
2024-105B,2024-105B,2025-08-18T03:45:52.980480,15.14353452,0.001241,97.5959,240.4281,207.937,152.1196,0,U,59918,999,6712,0.00015136,2.712e-05,0.0
2024-105C,2024-105C,2025-08-18T04:06:40.779648,15.1655791,0.0012984,97.594,241.1693,188.9607,171.1396,0,U,59919,999,6718,0.00019922,3.826e-05,0.0
2024-105D,2024-105D,2025-08-18T03:57:23.702688,15.17985136,0.00128,97.5997,241.9964,186.4636,173.6435,0,U,59920,999,6721,0.00022208,4.452e-05,0.0
2024-105E,2024-105E,2025-08-18T03:28:48.279936,15.16364976,0.0012933,97.5947,241.0826,188.5486,171.5528,0,U,59921,999,6717,0.00015935,3.029e-05,0.0
STARLINK-31872,2024-106A,2025-08-17T20:18:00.295200,15.27586084,0.0001261,43.0008,44.062,272.6267,87.444,0,U,59922,999,6938,0.00011595,2.93e-05,0.0
STARLINK-31972,2024-106B,2025-08-17T18:17:56.798016,15.27578679,0.0001459,43.0004,44.2923,272.0856,87.9828,0,U,59923,999,6938,0.00013065,3.335e-05,0.0
STARLINK-31958,2024-106C,2025-08-17T20:02:04.717248,15.27581115,0.0001069,43.0027,29.2725,262.6466,97.4264,0,U,59924,999,6951,7.7832e-05,1.88e-05,0.0
STARLINK-31959,2024-106D,2025-08-17T12:51:45.175392,15.27573485,0.0001189,43.0037,41.6337,265.5586,94.513,0,U,59925,999,6934,5.5046e-05,1.253e-05,0.0
STARLINK-31957,2024-106E,2025-08-18T04:25:14.165472,15.27576619,0.0001192,43.0015,41.44,269.1936,90.8779,0,U,59926,999,6945,1.8271e-05,2.41e-06,0.0
STARLINK-31968,2024-106F,2025-08-18T04:36:21.010176,15.27575386,6.51e-05,42.9993,41.4993,70.2508,289.8414,0,U,59927,999,6946,2.6237e-05,4.6e-06,0.0
STARLINK-31970,2024-106G,2025-08-17T18:12:24.206400,15.27559648,0.0001588,43.001,44.2617,267.9646,92.1024,0,U,59928,999,6938,0.00017877,4.657e-05,0.0
STARLINK-31932,2024-106H,2025-08-18T04:11:17.557728,15.27585001,0.000416,43.0003,38.6568,258.6905,101.3479,0,U,59929,999,6943,-0.0022303,-0.00061158,0.0
STARLINK-31956,2024-106J,2025-08-17T18:03:09.249696,15.27577371,0.0001567,43.0044,44.2156,270.7993,89.2679,0,U,59930,999,6933,2.7013e-05,4.81e-06,0.0
STARLINK-31960,2024-106K,2025-08-17T20:49:16.032288,15.27565565,0.0001039,43.0039,43.3629,285.022,75.0517,0,U,59931,999,6935,7.922e-05,1.918e-05,0.0
STARLINK-31432,2024-106L,2025-08-18T03:59:32.217504,15.27546107,0.0002983,42.9966,42.1712,269.7819,90.2691,0,U,59932,999,6938,-0.004295,-0.00116509,0.0
STARLINK-31853,2024-106M,2025-08-17T18:08:42.426240,15.27572168,0.0001266,43.0018,44.2408,252.5924,107.4789,0,U,59933,999,6933,3.9685e-05,8.3e-06,0.0
STARLINK-31971,2024-106N,2025-08-18T04:16:51.461760,15.27575936,0.0001327,43.0037,38.6442,280.5841,79.4861,0,U,59934,999,6927,8.4851e-06,-2.9e-07,0.0
STARLINK-31962,2024-106Q,2025-08-17T20:14:18.588480,15.27580348,0.000105,42.9999,44.038,284.3828,75.6907,0,U,59936,999,6934,5.1607e-05,1.158e-05,0.0
